{
  "norad_id": 57526,
  "name": "STARLINK-30257",
  "history": [
    {
      "epoch": "2026-03-28T17:44:46.244832Z",
      "apogee_km": 484.2879448680933,
      "perigee_km": 481.87951916674047,
      "latitude_deg": 2.8169788299669208e-05,
      "longitude_deg": 161.77179769966943,
      "height_km": 482.8149929897242,
      "semi_major_axis_km": 6861.220732017417,
      "eccentricity": 0.00017551,
      "inclination_deg": 42.9989,
      "raan_deg": 254.12,
      "arg_perigee_deg": 272.1705,
      "mean_anomaly_deg": 87.8946,
      "mean_motion_rev_day": 15.27568433
    }
  ]
}