{"fetched_at":"2026-03-29T16:36:15Z","count":15609,"tles":[{"name":"STARLINK-30257","line1":"1 57526U 23115F   26087.73942413  .00006125  00000+0  23201-3 0  9997","line2":"2 57526  42.9989 254.1200 0001755 272.1705  87.8946 15.27568433145268","category":"Starlink"}]}